     2.100          NAVIGATION                              RINEX VERSION / TYPE
fic2rin                                 11/14/2012 00:18:20 PGM / RUN BY / DATE
                                                            END OF HEADER
 5 12 11 13  6  0  0.0 -.366207212210D-03 -.250111042988D-11  .000000000000D+00
     .260000000000D+02  .110000000000D+03  .432803742299D-08 -.267532763196D+00
     .577419996262D-05  .307519105263D-02  .131484121084D-04  .515379549980D+04
     .194400000000D+06  .447034835815D-07  .309000551296D+01 -.204890966415D-07
     .950367400468D+00  .117437500000D+03  .260945496170D+00 -.794890253227D-08
    -.521450291926D-10  .100000000000D+01  .171400000000D+04  .000000000000D+00
     .240000000000D+01  .000000000000D+00 -.102445483208D-07  .260000000000D+02
     .187206000000D+06  .400000000000D+01
 6 12 11 13  6  0  0.0  .458338297904D-03 -.118234311230D-10  .000000000000D+00
     .210000000000D+02  .373437500000D+02  .536558064083D-08 -.318119212268D+00
     .190921127796D-05  .739157013595D-02  .648945569992D-05  .515367859268D+04
     .194400000000D+06  .409781932831D-07  .936906484110D+00 -.111758708954D-06
     .939158036456D+00  .245906250000D+03 -.416913587016D+00 -.856142804641D-08
     .461804950316D-09  .100000000000D+01  .171400000000D+04  .000000000000D+00
     .240000000000D+01  .000000000000D+00 -.512227416039D-08  .210000000000D+02
     .187206000000D+06  .400000000000D+01
 7 12 11 13  6  0  0.0  .144900288433D-03  .454747350886D-11  .000000000000D+00
     .420000000000D+02 -.136468750000D+03  .442125559161D-08  .252496617758D+01
    -.702589750290D-05  .606448540930D-02  .492110848427D-05  .515371760559D+04
     .194400000000D+06 -.193715095520D-06 -.107886865139D+01  .167638063431D-07
     .975675595045D+00  .294875000000D+03 -.293871027797D+01 -.816605443466D-08
    -.361800784741D-09  .100000000000D+01  .171400000000D+04  .000000000000D+00
     .240000000000D+01  .000000000000D+00 -.111758708954D-07  .420000000000D+02
     .187206000000D+06  .400000000000D+01
 9 12 11 13  6  0  0.0  .199332833290D-03  .261479726760D-11  .000000000000D+00
     .102000000000D+03 -.143218750000D+03  .416267339206D-08  .196446180486D+01
    -.766664743423D-05  .172273063799D-01  .350549817085D-05  .515365785217D+04
     .194400000000D+06  .281259417534D-06 -.110338992917D+01 -.188127160072D-06
     .984333863994D+00  .322406250000D+03  .164781701506D+01 -.800461913880D-08
    -.451090218290D-09  .100000000000D+01  .171400000000D+04  .000000000000D+00
     .340000000000D+01  .000000000000D+00 -.558793544769D-08  .102000000000D+03
     .187206000000D+06  .400000000000D+01
10 12 11 13  6  0  0.0 -.583026558161D-04 -.125055521494D-11  .000000000000D+00
     .240000000000D+02  .115593750000D+03  .451233081383D-08  .334976509459D-01
     .609643757343D-05  .119550434174D-01  .123083591461D-04  .515374689102D+04
     .194400000000D+06  .502914190292D-07  .311057107488D+01  .199303030968D-06
     .945226551268D+00  .136156250000D+03  .770666432047D+00 -.816105422638D-08
    -.471448209139D-10  .100000000000D+01  .171400000000D+04  .000000000000D+00
     .240000000000D+01  .000000000000D+00 -.279396772385D-08  .240000000000D+02
     .187206000000D+06  .400000000000D+01
11 12 11 13  6  0  0.0 -.322681851685D-03 -.397903932026D-11  .000000000000D+00
     .560000000000D+02 -.436250000000D+02  .650277086651D-08  .270233439585D+01
    -.234693288803D-05  .137514433591D-01  .444613397121D-05  .515367464256D+04
     .194400000000D+06  .521540641785D-07  .176092050168D+01 -.160187482834D-06
     .887945568166D+00  .251843750000D+03  .111885784186D+01 -.889858494750D-08
    -.452518849226D-09  .100000000000D+01  .171400000000D+04  .000000000000D+00
     .240000000000D+01  .000000000000D+00 -.116415321827D-07  .560000000000D+02
     .187206000000D+06  .400000000000D+01
12 12 11 13  6  0  0.0  .101345125586D-03  .204636307899D-11  .000000000000D+00
     .740000000000D+02 -.770312500000D+02  .365086635895D-08  .221359932557D+01
    -.393390655518D-05  .400643853936D-02  .137984752655D-04  .515368866920D+04
     .194400000000D+06 -.912696123123D-07 -.218001257999D-01  .119209289551D-06
     .982247204459D+00  .123312500000D+03  .141018471014D+00 -.747852579633D-08
     .328942273195D-09  .100000000000D+01  .171400000000D+04  .000000000000D+00
     .240000000000D+01  .000000000000D+00 -.121071934700D-07  .740000000000D+02
     .187206000000D+06  .400000000000D+01
13 12 11 13  6  0  0.0  .167611986399D-03 -.272848410532D-11  .000000000000D+00
     .128000000000D+03  .707500000000D+02  .447482925174D-08 -.139929125743D+01
     .377744436264D-05  .478318159003D-02  .114180147648D-05  .515359118462D+04
     .194400000000D+06 -.279396772385D-07 -.204820265748D+01  .372529029846D-08
     .983688402593D+00  .375875000000D+03  .207522376090D+01 -.839320675361D-08
     .333585323739D-09  .100000000000D+01  .171400000000D+04  .000000000000D+00
     .340000000000D+01  .000000000000D+00 -.111758708954D-07  .128000000000D+03
     .187206000000D+06  .400000000000D+01
14 12 11 13  6  0  0.0  .216640066355D-03  .682121026330D-12  .000000000000D+00
     .720000000000D+02  .939687500000D+02  .457911931013D-08 -.119194164934D+01
     .510364770889D-05  .682693510316D-02  .162981450558D-05  .515366760063D+04
     .194400000000D+06  .335276126862D-07 -.207609886825D+01  .186264514923D-06
     .976469397801D+00  .356093750000D+03 -.202285016429D+01 -.841463621766D-08
     .354657630057D-09  .100000000000D+01  .171400000000D+04  .000000000000D+00
     .240000000000D+01  .000000000000D+00 -.884756445885D-08  .720000000000D+02
     .187206000000D+06  .400000000000D+01
15 12 11 13  6  0  0.0 -.995243899524D-04 -.909494701773D-12  .000000000000D+00
     .860000000000D+02  .114312500000D+03  .529450625172D-08 -.159890334845D+01
     .564195215702D-05  .493231951259D-02  .157393515110D-05  .515366361046D+04
     .194400000000D+06 -.242143869400D-07 -.216956352669D+01 -.115483999252D-06
     .943273163571D+00  .340218750000D+03  .541708455989D-01 -.879108046950D-08
     .477162732886D-09  .100000000000D+01  .171400000000D+04  .000000000000D+00
     .340000000000D+01  .000000000000D+00 -.102445483208D-07  .860000000000D+02
     .187206000000D+06  .400000000000D+01
16 12 11 13  6  0  0.0 -.249471515417D-03 -.568434188608D-12  .000000000000D+00
     .101000000000D+03 -.543437500000D+02  .369372528706D-08 -.340963940574D-01
    -.293925404549D-05  .656503171194D-02  .126305967569D-04  .515379031181D+04
     .194400000000D+06  .968575477600D-07 -.354415457684D-02 -.260770320892D-07
     .983012279893D+00  .149000000000D+03  .234453059168D-01 -.761388857759D-08
     .252867675811D-09  .100000000000D+01  .171400000000D+04  .000000000000D+00
     .240000000000D+01  .000000000000D+00 -.977888703346D-08  .101000000000D+03
     .187206000000D+06  .400000000000D+01
17 12 11 13  6  0  0.0  .791014172137D-04 -.352429196937D-11  .000000000000D+00
     .990000000000D+02  .290000000000D+02  .498985070445D-08 -.947674640807D+00
     .151805579662D-05  .772144924849D-02  .565312802792D-05  .515374607086D+04
     .194400000000D+06  .154599547386D-06  .103492831376D+01  .173225998878D-06
     .963675826635D+00  .274031250000D+03 -.229142075083D+01 -.829713132311D-08
     .320727645308D-09  .100000000000D+01  .171400000000D+04  .000000000000D+00
     .340000000000D+01  .000000000000D+00 -.107102096081D-07  .990000000000D+02
     .187206000000D+06  .400000000000D+01
19 12 11 13  6  0  0.0 -.321691390127D-03 -.341060513165D-11  .000000000000D+00
     .700000000000D+02  .321875000000D+02  .494020577940D-08 -.173790998380D+01
     .166147947311D-05  .865750387311D-02  .540353357792D-05  .515362694931D+04
     .194400000000D+06  .204890966415D-07  .108746787258D+01 -.838190317154D-07
     .960942005789D+00  .276750000000D+03  .271369968060D+00 -.823141430002D-08
     .443232748137D-09  .100000000000D+01  .171400000000D+04  .000000000000D+00
     .240000000000D+01  .000000000000D+00 -.144354999065D-07  .700000000000D+02
     .187206000000D+06  .400000000000D+01
20 12 11 13  6  0  0.0  .732187181711D-04  .113686837722D-11  .000000000000D+00
     .920000000000D+02  .891562500000D+02  .480734310228D-08  .102439540600D+01
     .457651913166D-05  .525222322904D-02  .123921781778D-04  .515361042595D+04
     .194400000000D+06 -.670552253723D-07  .304318341836D+01 -.130385160446D-07
     .929603288383D+00  .122937500000D+03  .127074009906D+01 -.820605610089D-08
    -.144648882349D-09  .100000000000D+01  .171400000000D+04  .000000000000D+00
     .240000000000D+01  .000000000000D+00 -.791624188423D-08  .920000000000D+02
     .187206000000D+06  .400000000000D+01
21 12 11 13  6  0  0.0 -.261892098933D-03 -.238742359215D-11  .000000000000D+00
     .990000000000D+02 -.529062500000D+02  .549237163647D-08  .162972411385D+01
    -.288709998131D-05  .194490000140D-01  .781007111073D-05  .515376774979D+04
     .194400000000D+06 -.424683094025D-06  .204767399546D+01 -.165775418282D-06
     .931132244047D+00  .220593750000D+03 -.220397105416D+01 -.862571643857D-08
    -.744316718065D-09  .100000000000D+01  .171400000000D+04  .000000000000D+00
     .240000000000D+01  .000000000000D+00 -.111758708954D-07  .990000000000D+02
     .187206000000D+06  .400000000000D+01
22 12 11 13  6  0  0.0  .151182990521D-03  .682121026330D-12  .000000000000D+00
     .620000000000D+02  .864687500000D+02  .497556439509D-08 -.210173831429D+00
     .458769500256D-05  .619513774291D-02  .126417726278D-04  .515367902565D+04
     .194400000000D+06 -.409781932831D-07  .309977609558D+01  .135973095894D-06
     .926746263502D+00  .119937500000D+03 -.200996607653D+01 -.825820113008D-08
    -.332156692802D-10  .100000000000D+01  .171400000000D+04  .000000000000D+00
     .340000000000D+01  .000000000000D+00 -.172294676304D-07  .620000000000D+02
     .187206000000D+06  .400000000000D+01
